{
  "type": "FeatureCollection",
  "features": [
    {
      "type": "Feature",
      "properties": {
        "norad_id": 32447,
        "name": "FENGYUN 1C DEB",
        "group": "fengyun-1c-debris",
        "lat": -38.4508618843716,
        "lon": 13.763481675840358,
        "alt_km": 893.2346154714314,
        "timestamp": "2025-12-16T13:52:37.809966+00:00",
        "meta_object_name": "FENGYUN 1C DEB",
        "meta_object_id": "1999-025DBK",
        "meta_epoch": "2025-12-09T20:22:18.261408",
        "meta_mean_motion": 13.96013309,
        "meta_eccentricity": 0.00800272,
        "meta_inclination": 98.9313,
        "meta_ra_of_asc_node": 0.0649,
        "meta_arg_of_pericenter": 49.1812,
        "meta_mean_anomaly": 311.6255,
        "meta_ephemeris_type": 0,
        "meta_classification_type": "U",
        "meta_norad_cat_id": 32447,
        "meta_element_set_no": 999,
        "meta_rev_at_epoch": 67838,
        "meta_bstar": 0.00036340481,
        "meta_mean_motion_dot": 4.69e-06,
        "meta_mean_motion_ddot": 0,
        "tle_line1": "1 32447U 99025DBK 25343.84882247  .00000469  00000+0  36340-3 0  9992",
        "tle_line2": "2 32447  98.9313   0.0649 0080027  49.1812 311.6255 13.96013309678386"
      },
      "geometry": {
        "type": "Point",
        "coordinates": [
          13.763481675840358,
          -38.4508618843716
        ]
      }
    },
    {
      "type": "Feature",
      "properties": {
        "norad_id": 32451,
        "name": "FENGYUN 1C DEB",
        "group": "fengyun-1c-debris",
        "lat": -37.257879973079596,
        "lon": 142.91866812979777,
        "alt_km": 832.4911337249605,
        "timestamp": "2025-12-16T13:52:37.809976+00:00",
        "meta_object_name": "FENGYUN 1C DEB",
        "meta_object_id": "1999-025DBP",
        "meta_epoch": "2025-12-15T17:47:04.547904",
        "meta_mean_motion": 13.86588617,
        "meta_eccentricity": 0.01851329,
        "meta_inclination": 99.9706,
        "meta_ra_of_asc_node": 329.7162,
        "meta_arg_of_pericenter": 187.005,
        "meta_mean_anomaly": 172.8511,
        "meta_ephemeris_type": 0,
        "meta_classification_type": "U",
        "meta_norad_cat_id": 32451,
        "meta_element_set_no": 999,
        "meta_rev_at_epoch": 61806,
        "meta_bstar": 0.001782357,
        "meta_mean_motion_dot": 2.321e-05,
        "meta_mean_motion_ddot": 0,
        "tle_line1": "1 32451U 99025DBP 25349.74102486  .00002321  00000+0  17824-2 0  9996",
        "tle_line2": "2 32451  99.9706 329.7162 0185132 187.0050 172.8511 13.86588617618067"
      },
      "geometry": {
        "type": "Point",
        "coordinates": [
          142.91866812979777,
          -37.257879973079596
        ]
      }
    },
    {
      "type": "Feature",
      "properties": {
        "norad_id": 32453,
        "name": "FENGYUN 1C DEB",
        "group": "fengyun-1c-debris",
        "lat": -10.259954329647227,
        "lon": -97.89573131690507,
        "alt_km": 952.9012414960725,
        "timestamp": "2025-12-16T13:52:37.809986+00:00",
        "meta_object_name": "FENGYUN 1C DEB",
        "meta_object_id": "1999-025DBR",
        "meta_epoch": "2025-12-13T00:18:14.482368",
        "meta_mean_motion": 14.02254123,
        "meta_eccentricity": 0.00962466,
        "meta_inclination": 99.3721,
        "meta_ra_of_asc_node": 256.7263,
        "meta_arg_of_pericenter": 205.2664,
        "meta_mean_anomaly": 154.3777,
        "meta_ephemeris_type": 0,
        "meta_classification_type": "U",
        "meta_norad_cat_id": 32453,
        "meta_element_set_no": 999,
        "meta_rev_at_epoch": 93432,
        "meta_bstar": 0.00092789099,
        "meta_mean_motion_dot": 1.433e-05,
        "meta_mean_motion_ddot": 0,
        "tle_line1": "1 32453U 99025DBR 25347.01266762  .00001433  00000+0  92789-3 0  9991",
        "tle_line2": "2 32453  99.3721 256.7263 0096246 205.2664 154.3777 14.02254123934322"
      },
      "geometry": {
        "type": "Point",
        "coordinates": [
          -97.89573131690507,
          -10.259954329647227
        ]
      }
    },
    {
      "type": "Feature",
      "properties": {
        "norad_id": 32455,
        "name": "FENGYUN 1C DEB",
        "group": "fengyun-1c-debris",
        "lat": -73.04867910376511,
        "lon": -133.30391731512097,
        "alt_km": 1069.5679898863682,
        "timestamp": "2025-12-16T13:52:37.809996+00:00",
        "meta_object_name": "FENGYUN 1C DEB",
        "meta_object_id": "1999-025DBT",
        "meta_epoch": "2025-12-15T19:17:51.115776",
        "meta_mean_motion": 13.92483124,
        "meta_eccentricity": 0.02358922,
        "meta_inclination": 101.7332,
        "meta_ra_of_asc_node": 182.7306,
        "meta_arg_of_pericenter": 137.6652,
        "meta_mean_anomaly": 224.2971,
        "meta_ephemeris_type": 0,
        "meta_classification_type": "U",
        "meta_norad_cat_id": 32455,
        "meta_element_set_no": 999,
        "meta_rev_at_epoch": 64458,
        "meta_bstar": 0.0013497912,
        "meta_mean_motion_dot": 2.12e-05,
        "meta_mean_motion_ddot": 0,
        "tle_line1": "1 32455U 99025DBT 25349.80406384  .00002120  00000+0  13498-2 0  9991",
        "tle_line2": "2 32455 101.7332 182.7306 0235892 137.6652 224.2971 13.92483124644585"
      },
      "geometry": {
        "type": "Point",
        "coordinates": [
          -133.30391731512097,
          -73.04867910376511
        ]
      }
    },
    {
      "type": "Feature",
      "properties": {
        "norad_id": 32456,
        "name": "FENGYUN 1C DEB",
        "group": "fengyun-1c-debris",
        "lat": 75.68772201371546,
        "lon": 59.746288219970154,
        "alt_km": 1302.0932431466817,
        "timestamp": "2025-12-16T13:52:37.810006+00:00",
        "meta_object_name": "FENGYUN 1C DEB",
        "meta_object_id": "1999-025DBU",
        "meta_epoch": "2025-12-13T02:43:30.810720",
        "meta_mean_motion": 13.35628818,
        "meta_eccentricity": 0.03795557,
        "meta_inclination": 103.6668,
        "meta_ra_of_asc_node": 127.6101,
        "meta_arg_of_pericenter": 224.6734,
        "meta_mean_anomaly": 132.3212,
        "meta_ephemeris_type": 0,
        "meta_classification_type": "U",
        "meta_norad_cat_id": 32456,
        "meta_element_set_no": 999,
        "meta_rev_at_epoch": 60621,
        "meta_bstar": 0.0028857751,
        "meta_mean_motion_dot": 2.143e-05,
        "meta_mean_motion_ddot": 0,
        "tle_line1": "1 32456U 99025DBU 25347.11355105  .00002143  00000+0  28858-2 0  9999",
        "tle_line2": "2 32456 103.6668 127.6101 0379555 224.6734 132.3212 13.35628818606216"
      },
      "geometry": {
        "type": "Point",
        "coordinates": [
          59.746288219970154,
          75.68772201371546
        ]
      }
    },
    {
      "type": "Feature",
      "properties": {
        "norad_id": 32458,
        "name": "FENGYUN 1C DEB",
        "group": "fengyun-1c-debris",
        "lat": 63.630740194768684,
        "lon": -7.9228045367521,
        "alt_km": 666.3700387680456,
        "timestamp": "2025-12-16T13:52:37.810017+00:00",
        "meta_object_name": "FENGYUN 1C DEB",
        "meta_object_id": "1999-025DBW",
        "meta_epoch": "2025-12-14T18:53:09.240864",
        "meta_mean_motion": 14.62309287,
        "meta_eccentricity": 0.00401386,
        "meta_inclination": 99.0466,
        "meta_ra_of_asc_node": 8.864,
        "meta_arg_of_pericenter": 7.8289,
        "meta_mean_anomaly": 352.3527,
        "meta_ephemeris_type": 0,
        "meta_classification_type": "U",
        "meta_norad_cat_id": 32458,
        "meta_element_set_no": 999,
        "meta_rev_at_epoch": 67819,
        "meta_bstar": 0.0012532172,
        "meta_mean_motion_dot": 6.347e-05,
        "meta_mean_motion_ddot": 0,
        "tle_line1": "1 32458U 99025DBW 25348.78691251  .00006347  00000+0  12532-2 0  9992",
        "tle_line2": "2 32458  99.0466   8.8640 0040138   7.8289 352.3527 14.62309287678194"
      },
      "geometry": {
        "type": "Point",
        "coordinates": [
          -7.9228045367521,
          63.630740194768684
        ]
      }
    },
    {
      "type": "Feature",
      "properties": {
        "norad_id": 32459,
        "name": "FENGYUN 1C DEB",
        "group": "fengyun-1c-debris",
        "lat": -45.47159470238955,
        "lon": 176.17524977889073,
        "alt_km": 658.793353605065,
        "timestamp": "2025-12-16T13:52:37.810026+00:00",
        "meta_object_name": "FENGYUN 1C DEB",
        "meta_object_id": "1999-025DBX",
        "meta_epoch": "2025-12-15T20:11:54.417984",
        "meta_mean_motion": 14.42821949,
        "meta_eccentricity": 0.02134121,
        "meta_inclination": 98.3024,
        "meta_ra_of_asc_node": 3.9941,
        "meta_arg_of_pericenter": 176.9542,
        "meta_mean_anomaly": 183.3005,
        "meta_ephemeris_type": 0,
        "meta_classification_type": "U",
        "meta_norad_cat_id": 32459,
        "meta_element_set_no": 999,
        "meta_rev_at_epoch": 94595,
        "meta_bstar": 0.00033141686,
        "meta_mean_motion_dot": 1.404e-05,
        "meta_mean_motion_ddot": 0,
        "tle_line1": "1 32459U 99025DBX 25349.84160206  .00001404  00000+0  33142-3 0  9992",
        "tle_line2": "2 32459  98.3024   3.9941 0213412 176.9542 183.3005 14.42821949945950"
      },
      "geometry": {
        "type": "Point",
        "coordinates": [
          176.17524977889073,
          -45.47159470238955
        ]
      }
    }
  ]
}